COSMOS 2419 (714)       
1 28915U 05050A   17022.09792774 -.00000029  00000-0  00000+0 0  9993
2 28915  65.4249  70.7782 0015124 347.5964 335.6250  2.13109135 86215
COSMOS 2425 (716)       
1 29670U 06062A   17022.03490000 -.00000061  00000-0  10000-3 0  9998
2 29670  65.5337 309.7902 0022796 342.8958 346.6453  2.13104918 78410
COSMOS 2426 (717)       
1 29671U 06062B   17022.37614422 -.00000059  00000-0  10000-3 0  9999
2 29671  65.5496 309.8651 0015734 169.0367 281.6569  2.13103043 78432
COSMOS 2424 (715)       
1 29672U 06062C   17022.38749821 -.00000059  00000-0  10000-3 0  9993
2 29672  65.5338 309.7884 0015213 168.1163 107.0113  2.13102018 78427
COSMOS 2433 (720)       
1 32275U 07052A   17021.34556813 -.00000036  00000-0  10000-3 0  9993
2 32275  65.4389  70.5783 0004159 261.8310  91.0577  2.13104902 71915
COSMOS 2432 (719)       
1 32276U 07052B   17022.30396845 -.00000027  00000-0  10000-3 0  9998
2 32276  65.4519  70.6156 0011856 328.9166 352.4598  2.13104025 71937
COSMOS 2434 (721)       
1 32393U 07065A   17021.36861691 -.00000063  00000-0  00000+0 0  9998
2 32393  65.1501 309.0314 0002229  96.4373 164.5775  2.13102795 70627
COSMOS 2436 (723)       
1 32395U 07065C   17021.77849475 -.00000062  00000-0  10000-3 0  9995
2 32395  65.1595 309.0613 0016157 355.0569 268.3547  2.13104213 70560
COSMOS 2443 (725)       
1 33379U 08046B   17021.66671115 -.00000033  00000-0  00000+0 0  9993
2 33379  65.3685  69.9625 0016320 188.1329 313.4111  2.13102061 64797
COSMOS 2456 (730)       
1 36111U 09070A   17021.33239042  .00000090  00000-0  00000+0 0  9993
2 36111  64.1804 188.5980 0003340 350.5700  53.2041  2.13102858 55292
COSMOS 2457 (733)       
1 36112U 09070B   17022.24909921  .00000086  00000-0  00000+0 0  9990
2 36112  64.1621 188.4890 0007257 147.5365   8.7563  2.13101576 55314
COSMOS 2458 (734)       
1 36113U 09070C   17021.31095006  .00000090  00000-0  10000-3 0  9998
2 36113  64.1675 188.5290 0003134  60.3277 143.9773  2.13101956 55297
COSMOS 2459 (731)       
1 36400U 10007A   17022.14023069 -.00000028  00000-0  10000-3 0  9993
2 36400  65.3486  69.6740 0027549 349.5537 116.3291  2.13102235 53664
COSMOS 2461 (735)       
1 36401U 10007B   17021.38506800 -.00000036  00000-0  10000-3 0  9997
2 36401  65.3406  69.6801 0004900  67.4785  89.6602  2.13102139 53641
COSMOS 2460 (732)       
1 36402U 10007C   17021.79734307 -.00000032  00000-0  10000-3 0  9994
2 36402  65.3321  69.6401 0001464 262.2753 252.6844  2.13101805 53656
COSMOS 2465 (737)       
1 37138U 10041B   17021.77834459 -.00000062  00000-0  00000+0 0  9994
2 37138  64.7486 309.0796 0034072 173.5882  85.3426  2.13104379 49723
COSMOS 2464 (736)       
1 37139U 10041C   17021.33940816 -.00000063  00000-0  00000+0 0  9993
2 37139  64.7553 309.0924 0023912   8.3393  97.9911  2.13102574 49728
COSMOS 2471 (701K)      
1 37372U 11009A   17022.37050419 -.00000026  00000-0  00000+0 0  9992
2 37372  65.3289  69.5709 0008940 237.7973 130.2046  2.13102786 45940
COSMOS 2474 (742)       
1 37829U 11055A   17021.29410128  .00000091  00000-0  00000+0 0  9998
2 37829  64.5044 189.1031 0005858 243.4349 351.3967  2.13101879 41283
COSMOS 2476 (744)       
1 37867U 11064A   17022.43468174  .00000087  00000-0  00000+0 0  9996
2 37867  64.4846 189.1400 0015015 241.2080 194.5328  2.13101946 40662
COSMOS 2477 (745)       
1 37868U 11064B   17022.36686475  .00000088  00000-0  00000+0 0  9996
2 37868  64.4929 189.1851 0012955 242.2882 320.6462  2.13101804 40615
COSMOS 2475 (743)       
1 37869U 11064C   17022.37788612  .00000087  00000-0  00000+0 0  9993
2 37869  64.5003 189.1748 0017789 274.0311 253.6830  2.13101991 40627
COSMOS 2485 (747)       
1 39155U 13019A   17022.20337753  .00000089  00000-0  00000+0 0  9995
2 39155  64.6554 189.1459 0015531 235.2317  68.1447  2.13101977 29125
COSMOS 2492 (754)       
1 39620U 14012A   17022.03745323 -.00000030  00000-0  10000-3 0  9995
2 39620  65.2210  69.5888 0015514 326.1165 243.7669  2.13103438 22075
COSMOS 2500 (755)       
1 40001U 14032A   17022.36838441 -.00000026  00000-0  00000+0 0  9992
2 40001  65.1617  69.5854 0006988 217.4153 109.6764  2.13102779 20292
COSMOS 2501 (702K)      
1 40315U 14075A   17022.03960681 -.00000062  00000-0  00000+0 0  9993
2 40315  64.4822 310.4625 0014634 214.8383  27.9448  2.13100470 16693
COSMOS 2514 (751)       
1 41330U 16008A   17022.18011258 -.00000029  00000-0  00000+0 0  9995
2 41330  64.9620  69.7734 0010389 221.6830 140.5872  2.13103375  7468
COSMOS 2516 (753)       
1 41554U 16032A   17021.61305705 -.00000063  00000-0  00000+0 0  9998
2 41554  64.7013 310.1999 0011800 232.0231 308.6500  2.13101619  5053
